{
  "norad_id": 68666,
  "name": "STARLINK-37109",
  "history": [
    {
      "epoch": "2026-04-22T13:08:34.736928Z",
      "apogee_km": 344.5562449623876,
      "perigee_km": 343.3650892557753,
      "latitude_deg": -8.381905728246773e-05,
      "longitude_deg": -64.15906399649441,
      "height_km": 347.3108069968404,
      "semi_major_axis_km": 6722.097667109081,
      "eccentricity": 8.86e-05,
      "inclination_deg": 97.2839,
      "raan_deg": 343.5933,
      "arg_perigee_deg": 107.8947,
      "mean_anomaly_deg": 252.2414,
      "mean_motion_rev_day": 15.7523566
    }
  ]
}